H,e,a,q,i,om,w,ma,ad,n,per,moid,albedo
17.78,0.1781,2.555,2.1,2.17,73.85,291.59,48.98,3.01,0.2413,1490,1.1,0.140626782
16.43,0.2586,3.159,2.342,10.9,287.08,268.29,254.44,3.98,0.1756,2050,1.37,0.146928323
23.7,0.6534,2.212,0.767,4.43,155.75,79.92,345.02,3.66,0.2996,1200,0.0196,0.137465026
17.5,0.3232,2.705,1.83,13.87,146.35,228.46,302.99,3.58,0.2216,1620,0.86,0.148200083
17.49,0.0783,3.111,2.867,8.12,213.2,321.3,96.99,3.35,0.1796,2000,1.88,0.145974061
19.6,0.2361,2.147,1.64,4.91,66.76,276.84,166.29,2.65,0.3132,1150,0.643,0.140477465
18.17,0.1209,2.19,1.925,4.95,284.4,117.24,174.97,2.45,0.3041,1180,0.94,0.133742431
22.4,0.698,1.517,0.458,13.38,117.3,28.51,33.97,2.58,0.5277,682,0.156,0.121814081
22.2,0.4131,1.709,1.003,27.38,9.41,219.16,346.37,2.41,0.4412,816,0.0679,0.147370672
16.48,0.2764,2.589,1.873,4.34,339.4,9.53,356.96,3.3,0.2366,1520,0.868,0.142448244
17.61,0.0952,2.715,2.457,1.04,344.3,17.57,23.48,2.97,0.2203,1630,1.45,0.124493568
17.1,0.0699,3.109,2.892,9.8,329.25,90.29,107.95,3.33,0.1798,2000,1.93,0.142662457
16.87,0.1127,2.268,2.012,5.09,90.28,297.12,300.66,2.52,0.2886,1250,1.02,0.12325568
16.4,0.1439,3.087,2.643,10.58,69.11,251.56,355.65,3.53,0.1817,1980,1.65,0.141106556
18.3,0.227,2.557,1.976,6.39,133.1,240.86,306.01,3.14,0.2411,1490,0.986,0.121417565
17.3,0.0792,2.868,2.64,1.15,322.23,51.54,118.31,3.09,0.203,1770,1.64,0.138934986
17.95,0.0981,2.786,2.512,5.34,30.32,187.69,57.57,3.06,0.212,1700,1.51,0.157366837
17.7,0.1903,2.489,2.016,1.49,280.91,117.69,105.11,2.96,0.2509,1430,1.02,0.127880561
19.3,0.168,2.358,1.962,1.12,357,66.33,107.33,2.75,0.2721,1320,0.976,0.146335159
15.49,0.0815,3.085,2.833,10.46,309.9,30.27,108.49,3.34,0.1819,1980,1.83,0.156613231
19.2,0.1726,2.312,1.913,1.49,34.97,29.23,112.47,2.71,0.2803,1280,0.927,0.147543443
17.36,0.079,3.173,2.923,10.37,100.65,226.73,20.71,3.42,0.1744,2060,1.92,0.109342232
17.2,0.1951,3.139,2.526,9.46,285.49,8.96,124.33,3.75,0.1773,2030,1.51,0.123291233
17.23,0.1688,2.539,2.11,6.85,148.7,296.53,8.58,2.97,0.2437,1480,1.14,0.143099658
16.8,0.0539,3.227,3.053,20.52,149.3,77.43,215.13,3.4,0.17,2120,2.12,0.139700555
17.56,0.2164,2.589,2.029,12.99,281.32,59.37,23.19,3.15,0.2366,1520,1.05,0.128629218
16.64,0.202,3.18,2.538,15.48,194.55,277.78,244.39,3.82,0.1738,2070,1.61,0.146020161
13.44,0.0528,3.076,2.913,11.81,145.93,346.85,187.99,3.24,0.1827,1970,1.93,0.13578089
17.1,0.0909,2.701,2.455,6.95,121.76,123.78,1.04,2.95,0.2221,1620,1.45,0.138086682
17.6,0.066,2.767,2.584,4.87,160.38,250.48,63.46,2.95,0.2141,1680,1.6,0.136480132
19.05,0.2355,2.622,2.005,4.8,303.47,307.54,33.61,3.24,0.2321,1550,0.996,0.142548203
17.1,0.2613,3.037,2.244,5.41,129.96,186.52,123.12,3.83,0.1862,1930,1.23,0.130678369
15.95,0.2719,2.803,2.041,10.96,218.08,102.86,18.82,3.56,0.2101,1710,1.06,0.161332196
16.43,0.108,3.017,2.691,10.99,49.75,33.93,334.42,3.34,0.188,1910,1.71,0.152731947
17.34,0.2044,2.612,2.078,12.25,254.96,84.47,20.92,3.15,0.2335,1540,1.11,0.15833211
15.7,0.0819,2.332,2.141,6.71,99.02,149.06,145.2,2.52,0.2767,1300,1.13,0.133816779
15.63,0.2102,2.752,2.174,8.74,201.63,174.17,335.29,3.33,0.2159,1670,1.18,0.139364497
19.3,0.0294,1.848,1.794,20.25,345.1,103.22,166.56,1.9,0.3923,918,0.839,0.138780543
16.7,0.0777,2.782,2.566,5.31,304.39,67.88,139.1,3,0.2124,1700,1.57,0.137733942
18.1,0.0936,2.328,2.11,6.09,60.34,268.66,108.34,2.55,0.2774,1300,1.11,0.152042468
18.62,0.2073,2.426,1.923,1.37,18.6,328.08,161.01,2.93,0.2608,1380,0.917,0.135813602
17.58,0.1179,3.016,2.66,10.12,175.07,185.09,18.66,3.37,0.1882,1910,1.66,0.138524111
17.4,0.2335,2.315,1.774,11.55,289.87,346.02,230.72,2.86,0.2798,1290,0.761,0.134111626
16.66,0.1688,2.427,2.017,2.19,127.31,308.89,196.99,2.84,0.2607,1380,1.03,0.141364794
18.7,0.1606,2.537,2.129,17.45,12.11,339.23,295.57,2.94,0.2439,1480,1.13,0.13925201
16.09,0.1014,3.093,2.779,9.81,294,311.5,39,3.41,0.1812,1990,1.78,0.132964631
17.5,0.1668,2.698,2.248,11.03,107.09,321.95,120.59,3.15,0.2224,1620,1.27,0.1535816
18.09,0.0284,2.567,2.495,14.85,106.51,105.93,146.43,2.64,0.2396,1500,1.51,0.151743825
17.5,0.0938,2.412,2.186,7.85,138.32,336.23,298.68,2.64,0.2632,1370,1.2,0.138719216
17.7,0.1039,2.572,2.305,7.06,131.61,209.35,245.34,2.84,0.2389,1510,1.3,0.141359547
17.5,0.1365,2.427,2.096,1.12,5.3,143.36,10.51,2.76,0.2606,1380,1.11,0.137768648
7.52,0.1028,45.36,40.701,4.37,63.9,337.03,338.28,50.02,0.003226,112000,39.7,0.148532198
18.8,0.199,2.611,2.092,7.79,16.27,336.09,293.14,3.13,0.2336,1540,1.09,0.130406101
16.7,0.0104,2.812,2.782,7.24,136.46,169.14,256.86,2.84,0.2091,1720,1.77,0.162359761
17.46,0.2621,2.294,1.693,9.05,248.83,65.96,218,2.89,0.2837,1270,0.704,0.124541618
17.31,0.2327,3.156,2.422,11.31,270.33,172.04,316.89,3.89,0.1758,2050,1.44,0.123839748
17.2,0.2448,3.016,2.278,26.71,82.27,81.34,348.78,3.75,0.1881,1910,1.45,0.153139633
15.11,0.1785,2.597,2.134,4.87,141.68,314.32,64.9,3.06,0.2355,1530,1.15,0.145644148
16.94,0.1525,2.725,2.31,17.17,85.46,200.08,21.39,3.14,0.2191,1640,1.3,0.121642145
17.02,0.1631,3.044,2.547,6.6,70.15,342.63,308.59,3.54,0.1856,1940,1.56,0.140293783
17.52,0.2083,2.191,1.735,3.71,351.13,276.81,246.15,2.65,0.3038,1180,0.725,0.144504177
17.38,0.2009,2.492,1.992,4.05,351.22,3.62,39.46,2.99,0.2505,1440,0.988,0.132687482
17.19,0.0702,2.728,2.536,9.68,143.48,229.28,93.23,2.92,0.2188,1650,1.55,0.143497411
16.8,0.0763,3,2.771,9.26,352.99,112.14,216.22,3.23,0.1897,1900,1.8,0.133247519
17.4,0.0583,2.614,2.462,7.36,235.38,25.9,313.89,2.77,0.2331,1540,1.45,0.130823528
16.24,0.0596,3.033,2.852,9.79,145.63,251.56,50.14,3.21,0.1866,1930,1.88,0.136914071
15.74,0.0403,2.631,2.525,22.4,145.89,262.88,138.58,2.74,0.231,1560,1.59,0.147668816
18.36,0.1222,2.379,2.088,5.49,111.08,348.94,198.01,2.67,0.2686,1340,1.11,0.141217162
19.1,0.1931,2.322,1.873,7.47,267.8,194.54,129.03,2.77,0.2786,1290,0.891,0.126402817
17.7,0.1915,2.611,2.111,11.62,5.31,3.75,229.76,3.11,0.2336,1540,1.11,0.151442876
18.2,0.2079,2.299,1.821,8.03,203.61,188.07,145.39,2.78,0.2827,1270,0.827,0.150969176
17.25,0.2529,2.643,1.974,1.59,339.85,124.82,106.91,3.31,0.2294,1570,0.992,0.136190836
17.2,0.1965,2.744,2.205,11.2,226.29,134.69,168.87,3.28,0.2168,1660,1.22,0.128272391
17.86,0.1721,2.723,2.255,6.1,357.66,69.98,282.44,3.19,0.2193,1640,1.28,0.123718085
17.3,0.2726,3.01,2.19,16.67,87.38,310.87,258.6,3.83,0.1887,1910,1.24,0.160718065
17.6,0.2159,3.195,2.505,16.72,166.17,57.86,6.06,3.88,0.1726,2090,1.54,0.135779157
16.7,0.1288,2.689,2.342,2.33,337.82,73.39,1.13,3.04,0.2236,1610,1.35,0.127984782
16.2,0.1356,2.64,2.282,10.9,229.28,270.12,33.8,3,0.2297,1570,1.33,0.143397465
16.64,0.2233,2.749,2.135,16.07,55.56,322.62,204.13,3.36,0.2162,1660,1.16,0.143914473
15.94,0.1791,2.692,2.21,14.93,180.88,209.21,96.96,3.17,0.2231,1610,1.22,0.154885227
17.46,0.0519,2.816,2.67,5.34,257.17,161.33,347.48,2.96,0.2086,1730,1.68,0.134079791
18.3,0.0741,2.747,2.543,1.76,120.72,220.26,180.25,2.95,0.2165,1660,1.54,0.162605888
14.5,0.1245,5.014,4.39,22.1,333.1,326.98,233.41,5.64,0.0878,4100,3.39,0.146254897
19.8,0.1718,2.213,1.832,7.78,347.14,343.59,157.87,2.59,0.2995,1200,0.824,0.152744158
19.85,0.2966,2.423,1.704,4.31,181.86,112.12,271.04,3.14,0.2613,1380,1.25,0.1406739
16.54,0.2784,2.613,1.885,6.49,41.3,338.62,130.99,3.34,0.2334,1540,0.89,0.123392924
17.01,0.1575,3.055,2.573,4.26,343.39,16.02,247.87,3.54,0.1846,1950,1.57,0.148683838
18,0.1259,2.99,2.613,8.99,357.98,329.45,108.77,3.37,0.1906,1890,1.61,0.123367232
15.83,0.0763,2.953,2.728,2.28,178.01,333.24,332.24,3.18,0.1942,1850,1.74,0.143246905
16.54,0.1196,2.803,2.468,12.69,211.98,311.95,311.79,3.14,0.2101,1710,1.49,0.139932697
14.99,0.2074,3.084,2.445,22.33,47.36,137.57,260.65,3.72,0.1819,1980,1.48,0.130116073
16.75,0.0732,3.167,2.936,8.26,307.59,93.47,17.89,3.4,0.1748,2060,1.96,0.142899565
17.34,0.1343,2.72,2.355,8.81,241.79,190.5,142.46,3.09,0.2197,1640,1.37,0.155720182
18.1,0.3706,2.676,1.684,12.07,336.88,113.54,138.8,3.67,0.2252,1600,0.742,0.127510834
18.4,0.1129,2.726,2.418,13.43,125.33,7.85,134.41,3.03,0.219,1640,1.43,0.137814512
18.1,0.194,2.519,2.03,12.11,35.53,268.17,185.57,3.01,0.2466,1460,1.06,0.136411655
16.82,0.1553,2.848,2.406,16.03,56.55,288.35,220.4,3.29,0.205,1760,1.46,0.139645444
22.2,0.5033,2.186,1.086,4.71,344.78,350.02,267.43,3.29,0.3048,1180,0.0787,0.133912437
16.5,0.0489,2.691,2.56,5.11,272.01,100.93,175.56,2.82,0.2232,1610,1.57,0.153298646
18.5,0.242,2.596,1.968,12.06,339.68,292.75,84.99,3.22,0.2356,1530,1.25,0.134287144
16.47,0.1438,2.757,2.361,6.77,232.34,113.45,297.2,3.15,0.2153,1670,1.36,0.131287447
18.2,0.1633,2.589,2.166,4.01,134.89,185.98,142.46,3.01,0.2367,1520,1.15,0.130013525
17,0.2534,2.973,2.22,10.59,88,239.86,317.63,3.73,0.1923,1870,1.23,0.144710448
16.91,0.0951,2.674,2.419,9.7,62.21,203.86,235.76,2.93,0.2254,1600,1.41,0.117466341
17.3,0.077,2.836,2.617,2.31,161.61,233.8,343.03,3.05,0.2064,1740,1.62,0.142553467
15.9,0.1131,2.262,2.006,5.63,247.33,189.5,305.4,2.52,0.2896,1240,1.02,0.12059755
16.3,0.149,3.05,2.596,21.78,46.26,104.12,163.86,3.5,0.185,1950,1.7,0.149715128
17.2,0.1159,3.185,2.816,1.51,48.85,242.14,119.88,3.55,0.1734,2080,1.8,0.150861228
17.63,0.0682,2.641,2.46,14.24,168.35,206.16,3.2,2.82,0.2297,1570,1.46,0.130783394
17.28,0.0429,2.638,2.524,22.07,1.7,76.93,17.2,2.75,0.2301,1560,1.59,0.135275116
17.38,0.1078,2.31,2.061,7.26,15.85,26.29,22.86,2.56,0.2808,1280,1.07,0.147115256
16.3,0.1229,3.086,2.707,2.32,96.46,123.7,218.61,3.47,0.1818,1980,1.7,0.142546745
17.68,0.0802,2.657,2.444,6.92,147.86,51.14,49.91,2.87,0.2275,1580,1.45,0.127944167
18.3,0.28,3.066,2.207,13.39,201.34,198.45,338.89,3.92,0.1836,1960,1.22,0.148836762
17.66,0.1792,2.375,1.95,0.55,207.28,209.24,83.04,2.8,0.2693,1340,0.962,0.143880192
18.08,0.2262,2.149,1.663,4.24,34.69,290.46,169.02,2.64,0.3129,1150,0.658,0.145299334
16.1,0.0492,3.049,2.899,10.85,187.94,284.8,157.39,3.2,0.1851,1940,1.94,0.151054667
18.05,0.1345,2.735,2.367,11.66,309.27,296.26,52.49,3.1,0.2179,1650,1.38,0.140470615
